{
  "type": "FeatureCollection",
  "features": [
    {
      "type": "Feature",
      "properties": {
        "norad_id": 38067,
        "name": "COSMOS 2251 DEB",
        "group": "cosmos-2251-debris",
        "lat": 73.39895480192543,
        "lon": 20.566351906509922,
        "alt_km": 640.5921249454441,
        "timestamp": "2025-12-12T16:50:33.544582+00:00",
        "meta_object_name": "COSMOS 2251 DEB",
        "meta_object_id": "1993-036BRZ",
        "meta_epoch": "2025-12-11T13:16:36.500736",
        "meta_mean_motion": 14.61119497,
        "meta_eccentricity": 0.00693034,
        "meta_inclination": 74.0178,
        "meta_ra_of_asc_node": 276.7742,
        "meta_arg_of_pericenter": 64.8138,
        "meta_mean_anomaly": 110.1896,
        "meta_ephemeris_type": 0,
        "meta_classification_type": "U",
        "meta_norad_cat_id": 38067,
        "meta_element_set_no": 999,
        "meta_rev_at_epoch": 62538,
        "meta_bstar": 0.00063774411,
        "meta_mean_motion_dot": 3.215e-05,
        "meta_mean_motion_ddot": 0,
        "tle_line1": "1 38067U 93036BRZ 25345.55320024  .00003215  00000+0  63774-3 0  9995",
        "tle_line2": "2 38067  74.0178 276.7742 0069303  64.8138 110.1896 14.61119497625382"
      },
      "geometry": {
        "type": "Point",
        "coordinates": [
          20.566351906509922,
          73.39895480192543
        ]
      }
    },
    {
      "type": "Feature",
      "properties": {
        "norad_id": 38068,
        "name": "COSMOS 2251 DEB",
        "group": "cosmos-2251-debris",
        "lat": -39.397071185697726,
        "lon": 141.93137065598665,
        "alt_km": 795.0928903841495,
        "timestamp": "2025-12-12T16:50:33.544592+00:00",
        "meta_object_name": "COSMOS 2251 DEB",
        "meta_object_id": "1993-036BSA",
        "meta_epoch": "2025-11-26T00:12:22.263264",
        "meta_mean_motion": 14.35960004,
        "meta_eccentricity": 0.00240903,
        "meta_inclination": 74.0219,
        "meta_ra_of_asc_node": 338.9788,
        "meta_arg_of_pericenter": 72.1007,
        "meta_mean_anomaly": 288.2769,
        "meta_ephemeris_type": 0,
        "meta_classification_type": "U",
        "meta_norad_cat_id": 38068,
        "meta_element_set_no": 999,
        "meta_rev_at_epoch": 66406,
        "meta_bstar": 0.00028750999,
        "meta_mean_motion_dot": 8.11e-06,
        "meta_mean_motion_ddot": 0,
        "tle_line1": "1 38068U 93036BSA 25330.00859101  .00000811  00000+0  28751-3 0  9998",
        "tle_line2": "2 38068  74.0219 338.9788 0024090  72.1007 288.2769 14.35960004664064"
      },
      "geometry": {
        "type": "Point",
        "coordinates": [
          141.93137065598665,
          -39.397071185697726
        ]
      }
    },
    {
      "type": "Feature",
      "properties": {
        "norad_id": 38197,
        "name": "COSMOS 2251 DEB",
        "group": "cosmos-2251-debris",
        "lat": -23.575194583918268,
        "lon": -175.65218013398038,
        "alt_km": 576.2012168148904,
        "timestamp": "2025-12-12T16:50:33.544602+00:00",
        "meta_object_name": "COSMOS 2251 DEB",
        "meta_object_id": "1993-036BSM",
        "meta_epoch": "2025-12-11T07:19:51.756096",
        "meta_mean_motion": 14.73906007,
        "meta_eccentricity": 0.0126564,
        "meta_inclination": 73.9383,
        "meta_ra_of_asc_node": 359.8657,
        "meta_arg_of_pericenter": 237.7446,
        "meta_mean_anomaly": 121.1412,
        "meta_ephemeris_type": 0,
        "meta_classification_type": "U",
        "meta_norad_cat_id": 38197,
        "meta_element_set_no": 999,
        "meta_rev_at_epoch": 85734,
        "meta_bstar": 0.0083948544,
        "meta_mean_motion_dot": 0.00063118,
        "meta_mean_motion_ddot": 0,
        "tle_line1": "1 38197U 93036BSM 25345.30546014  .00063118  00000+0  83949-2 0  9994",
        "tle_line2": "2 38197  73.9383 359.8657 0126564 237.7446 121.1412 14.73906007857349"
      },
      "geometry": {
        "type": "Point",
        "coordinates": [
          -175.65218013398038,
          -23.575194583918268
        ]
      }
    },
    {
      "type": "Feature",
      "properties": {
        "norad_id": 38199,
        "name": "COSMOS 2251 DEB",
        "group": "cosmos-2251-debris",
        "lat": 10.781651874047197,
        "lon": 65.39432515385629,
        "alt_km": 765.5098322347822,
        "timestamp": "2025-12-12T16:50:33.544613+00:00",
        "meta_object_name": "COSMOS 2251 DEB",
        "meta_object_id": "1993-036BSP",
        "meta_epoch": "2025-12-09T13:08:57.601824",
        "meta_mean_motion": 13.64788419,
        "meta_eccentricity": 0.0369499,
        "meta_inclination": 73.956,
        "meta_ra_of_asc_node": 67.4327,
        "meta_arg_of_pericenter": 354.5631,
        "meta_mean_anomaly": 5.1515,
        "meta_ephemeris_type": 0,
        "meta_classification_type": "U",
        "meta_norad_cat_id": 38199,
        "meta_element_set_no": 999,
        "meta_rev_at_epoch": 60978,
        "meta_bstar": 0.00073909,
        "meta_mean_motion_dot": 9.26e-06,
        "meta_mean_motion_ddot": 0,
        "tle_line1": "1 38199U 93036BSP 25343.54788891  .00000926  00000+0  73909-3 0  9995",
        "tle_line2": "2 38199  73.9560  67.4327 0369499 354.5631   5.1515 13.64788419609786"
      },
      "geometry": {
        "type": "Point",
        "coordinates": [
          65.39432515385629,
          10.781651874047197
        ]
      }
    },
    {
      "type": "Feature",
      "properties": {
        "norad_id": 38208,
        "name": "COSMOS 2251 DEB",
        "group": "cosmos-2251-debris",
        "lat": 25.940681050569392,
        "lon": -109.03180462630537,
        "alt_km": 614.1294067144663,
        "timestamp": "2025-12-12T16:50:33.544623+00:00",
        "meta_object_name": "COSMOS 2251 DEB",
        "meta_object_id": "1993-036BSY",
        "meta_epoch": "2025-12-09T13:47:05.669952",
        "meta_mean_motion": 14.8367688,
        "meta_eccentricity": 0.0002644,
        "meta_inclination": 74.0057,
        "meta_ra_of_asc_node": 85.1942,
        "meta_arg_of_pericenter": 169.4562,
        "meta_mean_anomaly": 205.1363,
        "meta_ephemeris_type": 0,
        "meta_classification_type": "U",
        "meta_norad_cat_id": 38208,
        "meta_element_set_no": 999,
        "meta_rev_at_epoch": 71112,
        "meta_bstar": 0.003526,
        "meta_mean_motion_dot": 0.00029227,
        "meta_mean_motion_ddot": 0,
        "tle_line1": "1 38208U 93036BSY 25343.57437118  .00029227  00000+0  35260-2 0  9994",
        "tle_line2": "2 38208  74.0057  85.1942 0002644 169.4562 205.1363 14.83676880711127"
      },
      "geometry": {
        "type": "Point",
        "coordinates": [
          -109.03180462630537,
          25.940681050569392
        ]
      }
    },
    {
      "type": "Feature",
      "properties": {
        "norad_id": 38212,
        "name": "COSMOS 2251 DEB",
        "group": "cosmos-2251-debris",
        "lat": 69.03306949397883,
        "lon": -151.58614167105384,
        "alt_km": 579.5153737637766,
        "timestamp": "2025-12-12T16:50:33.544633+00:00",
        "meta_object_name": "COSMOS 2251 DEB",
        "meta_object_id": "1993-036BTC",
        "meta_epoch": "2025-12-08T13:15:26.464032",
        "meta_mean_motion": 14.77639869,
        "meta_eccentricity": 0.0092747,
        "meta_inclination": 74.0522,
        "meta_ra_of_asc_node": 84.8103,
        "meta_arg_of_pericenter": 153.0073,
        "meta_mean_anomaly": 207.5971,
        "meta_ephemeris_type": 0,
        "meta_classification_type": "U",
        "meta_norad_cat_id": 38212,
        "meta_element_set_no": 999,
        "meta_rev_at_epoch": 81248,
        "meta_bstar": 0.00080388,
        "meta_mean_motion_dot": 6.149e-05,
        "meta_mean_motion_ddot": 0,
        "tle_line1": "1 38212U 93036BTC 25342.55238963  .00006149  00000+0  80388-3 0  9993",
        "tle_line2": "2 38212  74.0522  84.8103 0092747 153.0073 207.5971 14.77639869812484"
      },
      "geometry": {
        "type": "Point",
        "coordinates": [
          -151.58614167105384,
          69.03306949397883
        ]
      }
    },
    {
      "type": "Feature",
      "properties": {
        "norad_id": 38220,
        "name": "COSMOS 2251 DEB",
        "group": "cosmos-2251-debris",
        "lat": -65.44969438270917,
        "lon": -72.75687864954524,
        "alt_km": 598.5795277044845,
        "timestamp": "2025-12-12T16:50:33.544643+00:00",
        "meta_object_name": "COSMOS 2251 DEB",
        "meta_object_id": "1993-036BTL",
        "meta_epoch": "2025-12-11T22:01:48.758016",
        "meta_mean_motion": 14.92850575,
        "meta_eccentricity": 0.0004483,
        "meta_inclination": 74.014,
        "meta_ra_of_asc_node": 69.9473,
        "meta_arg_of_pericenter": 50.1596,
        "meta_mean_anomaly": 309.9981,
        "meta_ephemeris_type": 0,
        "meta_classification_type": "U",
        "meta_norad_cat_id": 38220,
        "meta_element_set_no": 999,
        "meta_rev_at_epoch": 71358,
        "meta_bstar": 0.0045219,
        "meta_mean_motion_dot": 0.00047133,
        "meta_mean_motion_ddot": 0,
        "tle_line1": "1 38220U 93036BTL 25345.91792544  .00047133  00000+0  45219-2 0  9996",
        "tle_line2": "2 38220  74.0140  69.9473 0004483  50.1596 309.9981 14.92850575713585"
      },
      "geometry": {
        "type": "Point",
        "coordinates": [
          -72.75687864954524,
          -65.44969438270917
        ]
      }
    }
  ]
}